OBJECT_NAME,OBJECT_ID,EPOCH,MEAN_MOTION,ECCENTRICITY,INCLINATION,RA_OF_ASC_NODE,ARG_OF_PERICENTER,MEAN_ANOMALY,EPHEMERIS_TYPE,CLASSIFICATION_TYPE,NORAD_CAT_ID,ELEMENT_SET_NO,REV_AT_EPOCH,BSTAR,MEAN_MOTION_DOT,MEAN_MOTION_DDOT,SEMIMAJOR_AXIS,DEBRIS_TYPE,ORBITAL_PERIOD,ORBITAL_PERIOD_HOURS,ALTITUDE,PERIGEE,APOGEE
FENGYUN 1C DEB,1999-025CAY,2024-12-31T11:57:10.496160,14.32371352,0.0121742,98.5241,88.6023,201.071,158.5434,0,U,31642,999,92130,0.001504,4.37e-05,0.0,7161.952292543379,FENGYUN 1C,6031.958665002232,1.675544073611731,790.9522925433794,7074.761252943497,7249.143332143261
FENGYUN 1C DEB,1999-025CBC,2024-12-28T19:47:25.681920,14.13221991,0.0034579,98.7222,29.9757,129.7282,230.6946,0,U,31646,999,58261,0.0010678,1.968e-05,0.0,7226.504044940849,FENGYUN 1C,6113.692571457701,1.6982479365160281,855.5040449408489,7201.515516603848,7251.492573277849
FENGYUN 1C DEB,1999-025CBE,2024-12-28T08:09:29.187360,14.10623161,0.0044555,102.7983,32.4248,272.9542,86.6516,0,U,31648,999,66962,0.0032282,5.743e-05,0.0,7235.377047132413,FENGYUN 1C,6124.95599609495,1.7013766655819305,864.3770471324133,7203.139824698916,7267.614269565911
FENGYUN 1C DEB,1999-025CBM,2024-12-31T02:42:02.079648,13.60166045,0.0305616,99.2992,321.8892,310.6794,107.0076,0,U,31655,999,55000,0.016189,0.00016478,0.0,7413.225688594692,FENGYUN 1C,6352.169148728722,1.7644914302024226,1042.2256885946917,7186.665650390137,7639.785726799247
FENGYUN 1C DEB,1999-025CBN,2024-12-31T15:37:09.539040,14.39361457,0.0025816,99.1755,322.4656,356.5971,177.1498,0,U,31656,999,91462,0.0078459,0.00024528,0.0,7138.745980343406,FENGYUN 1C,6002.665102763941,1.6674069729899836,767.7459803434058,7120.316593720551,7157.175366966261
FENGYUN 1C DEB,1999-025CBP,2024-12-29T16:48:10.564992,13.94287619,0.0155944,102.2198,150.938,182.5442,177.493,0,U,31657,999,88836,0.0093248,0.00013671,0.0,7291.780620105725,FENGYUN 1C,6196.716280385591,1.7213100778848864,920.7806201057247,7178.069676403548,7405.491563807901
FENGYUN 1C DEB,1999-025CBQ,2024-12-25T03:16:12.361152,13.94750501,0.0222196,98.1626,242.3978,237.2942,120.6625,0,U,31658,999,64893,0.006325,0.00010384,0.0,7290.167227261428,FENGYUN 1C,6194.659748824396,1.7207388191178878,919.1672272614278,7128.18262753857,7452.151826984285
FENGYUN 1C DEB,1999-025CBR,2024-12-31T12:14:13.791840,15.13899368,0.0074062,98.9876,284.8196,156.722,203.7389,0,U,31659,999,93960,0.0048599,0.00095185,0.0,6902.459008849073,FENGYUN 1C,5707.119621571413,1.585311005992059,531.4590088490731,6851.338016937735,6953.58000076041
FENGYUN 1C DEB,1999-025CBS,2024-12-20T06:29:50.852544,14.25332424,0.0105699,98.4913,0.7549,148.6118,212.1429,0,U,31660,999,91297,0.00094738,2.325e-05,0.0,7185.512206603685,FENGYUN 1C,6061.747170495409,1.683818658470947,814.5122066036847,7109.562061131104,7261.462352076264
FENGYUN 1C DEB,1999-025CBT,2024-12-31T11:24:54.406944,14.22111064,0.0061823,98.879,76.6355,144.4451,338.5837,0,U,31661,999,90785,0.0045926,0.00010338,0.0,7196.35917544227,FENGYUN 1C,6075.4782146870075,1.6876328374130576,825.3591754422696,7151.869124111933,7240.849226772607
FENGYUN 1C DEB,1999-025CBV,2024-12-31T20:11:18.478176,14.73834526,0.0196997,98.8737,236.2002,242.9097,115.1892,0,U,31663,999,94180,0.0009513,8.443e-05,0.0,7026.990352298111,FENGYUN 1C,5862.262442478133,1.6284062340217038,655.9903522981112,6888.560750454944,7165.419954141279
FENGYUN 1C DEB,1999-025CBW,2024-12-31T17:12:50.776704,14.09530646,0.0126712,98.7327,1.8973,58.5125,302.8355,0,U,31664,999,91125,0.0012768,2.364e-05,0.0,7239.11528306086,FENGYUN 1C,6129.703396457662,1.7026953879049063,868.1152830608598,7147.387005486139,7330.843560635581
FENGYUN 1C DEB,1999-025CBX,2024-12-30T16:18:49.313952,13.83277234,0.0189087,98.4764,76.7345,57.0444,304.8737,0,U,31665,999,88390,0.0028701,3.58e-05,0.0,7330.422755868317,FENGYUN 1C,6246.0398941239,1.7350110817010833,959.4227558683169,7191.81399110443,7469.031520632203
FENGYUN 1C DEB,1999-025CBY,2024-12-31T19:05:05.806176,14.62767374,0.0038845,98.6458,126.8534,156.9911,203.3039,0,U,31666,999,92178,0.010007,0.00051915,0.0,7062.389479957908,FENGYUN 1C,5906.615735194379,1.6407265931095498,691.3894799579084,7034.955628023013,7089.823331892805
FENGYUN 1C DEB,1999-025CBZ,2024-12-23T08:56:54.230496,14.22846892,0.0051927,99.1153,192.3016,21.9756,338.3631,0,U,31667,999,50952,0.00052226,1.142e-05,0.0,7193.877887574976,FENGYUN 1C,6072.336269472178,1.6867600748533829,822.8778875749758,7156.522237868165,7231.233537281787
FENGYUN 1C DEB,1999-025CCE,2024-12-28T17:18:21.855456,14.43308553,0.0121461,98.9462,164.7741,306.3347,52.6678,0,U,31672,999,59821,0.0044049,0.00016213,0.0,7125.72489103584,FENGYUN 1C,5986.249281374113,1.6628470226039203,754.7248910358403,7039.17512393683,7212.274658134851
FENGYUN 1C DEB,1999-025CCF,2024-12-31T17:16:51.381696,14.3106503,0.0126273,99.3629,167.6642,324.7348,34.5525,0,U,31673,999,59940,0.00079468,2.232e-05,0.0,7166.3100693703645,FENGYUN 1C,6037.464830090468,1.6770735639140188,795.3100693703645,7075.818922231404,7256.801216509324
FENGYUN 1C DEB,1999-025CCG,2024-12-28T06:28:37.180128,14.41803443,0.0028202,98.9343,14.2959,253.8027,106.0057,0,U,31674,999,59559,0.0066453,0.00021838,0.0,7130.683095624542,FENGYUN 1C,5992.498374272062,1.6645828817422395,759.6830956245421,7110.573143158262,7150.793048090822
FENGYUN 1C DEB,1999-025CCL,2024-12-31T12:33:31.611456,14.45524296,0.0283515,98.7926,94.3882,353.4187,6.3311,0,U,31678,999,91890,0.0023679,0.00013726,0.0,7118.44134626897,FENGYUN 1C,5977.073378915633,1.6602981608098981,747.4413462689699,6916.622856440225,7320.259836097715
FENGYUN 1C DEB,1999-025CCN,2024-12-31T18:03:05.467968,15.04943165,0.0108062,99.8639,7.4902,327.6431,31.819,0,U,31680,999,94960,0.0030074,0.0004875,0.0,6929.817148885099,FENGYUN 1C,5741.0837758762555,1.5947454932989598,558.8171488850994,6854.932158810818,7004.702138959381
FENGYUN 1C DEB,1999-025CCT,2024-12-29T13:04:22.766016,14.09486091,0.00174,98.7669,32.5736,131.2173,229.05,0,U,31685,999,90619,0.00019132,2.92e-06,0.0,7239.267838465857,FENGYUN 1C,6129.8971613600415,1.7027492114889005,868.2678384658566,7226.671512426927,7251.864164504787
